{"fetched_at":"2026-03-29T16:36:15Z","count":15609,"tles":[{"name":"STARLINK-2273","line1":"1 47993U 21024S   26087.66338988  .00028811  00000+0  73394-3 0  9993","line2":"2 47993  53.1549 207.7432 0000861  47.2796 312.8281 15.39352121278033","category":"Starlink"}]}